STARLINK-35042          
1 65481U 25195Z   25309.89850612  .00067585  00000+0  16814-2 0  9996
2 65481  53.1595 113.6782 0001558 349.3684  10.7288 15.39679564 11012
STARLINK-35038          
1 65482U 25195AA  25309.73389126  .00037250  00000+0  12624-2 0  9998
2 65482  53.1591 114.0486 0001857  87.3324 272.7889 15.30228907 10992
STARLINK-35037          
1 65483U 25195AB  25309.84552554  .00050595  00000+0  17056-2 0  9999
2 65483  53.1578 113.3215 0003955  54.4530 305.6839 15.30255824 11018
STARLINK-35089          
1 65484U 25195AC  25309.88140313  .00053311  00000+0  17983-2 0  9998
2 65484  53.1553 113.5473 0000672  75.2429 284.8647 15.30215932 11012
STARLINK-35143          
1 65485U 25195AD  25309.88867497  .00038707  00000+0  13109-2 0  9996
2 65485  53.1580 112.8824 0000930  26.1164 333.9884 15.30231170 11025
STARLINK-35226          
1 65492U 25198A   25309.52771000  .00073104  00000+0  18763-2 0  9993
2 65492  53.1541 133.8706 0004443  18.6968 341.4199 15.38682899  9524
STARLINK-35242          
1 65493U 25198B   25309.56023442  .00060187  00000+0  15013-2 0  9990
2 65493  53.1575 134.0819 0000961  82.3821 277.7293 15.39649791  9528
STARLINK-35223          
1 65494U 25198C   25309.90294811  .00055869  00000+0  13947-2 0  9994
2 65494  53.1634 131.9479 0000371 235.6244 124.4726 15.39658698  9581
STARLINK-34446          
1 65495U 25198D   25309.93545967  .00030855  00000+0  77768-3 0  9999
2 65495  53.1575 132.1549 0001033  92.8241 267.2882 15.39641755  9588
STARLINK-35212          
1 65496U 25198E   25309.50451266  .00047045  00000+0  11777-2 0  9997
2 65496  53.1573 133.7271 0001669  89.0013 271.1183 15.39649953  9526
STARLINK-34455          
1 65497U 25198F   25309.92650277  .00046172  00000+0  11565-2 0  9992
2 65497  53.1573 132.0957 0001212  67.0316 293.0817 15.39641303  9580
STARLINK-35203          
1 65498U 25198G   25309.94010282  .00044412  00000+0  11122-2 0  9995
2 65498  53.1555 132.1845 0000866  41.9391 318.1680 15.39663909  9589
STARLINK-35166          
1 65499U 25198H   25309.90759613  .00062349  00000+0  15537-2 0  9993
2 65499  53.1600 131.9743 0000308 129.2046 230.8986 15.39665218  9587
STARLINK-35207          
1 65500U 25198J   25309.91223782  .00047159  00000+0  11800-2 0  9991
2 65500  53.1632 132.0059 0000746 316.0362  44.0584 15.39664185  9581
STARLINK-35140          
1 65501U 25198K   25309.92185852  .00082058  00000+0  20373-2 0  9990
2 65501  53.1580 132.0655 0001149  80.3133 279.8001 15.39651698  9588
STARLINK-35114          
1 65502U 25198L   25309.94474641  .00041799  00000+0  10485-2 0  9990
2 65502  53.1573 132.2145 0001294  72.7491 287.3655 15.39640124  9581
