[{"OBJECT_NAME":"STARLINK-35042","OBJECT_ID":"2025-195Z","EPOCH":"2025-11-05T21:33:50.928768","MEAN_MOTION":15.39679564,"ECCENTRICITY":0.00015588,"INCLINATION":53.1595,"RA_OF_ASC_NODE":113.6782,"ARG_OF_PERICENTER":349.3684,"MEAN_ANOMALY":10.7288,"EPHEMERIS_TYPE":0,"CLASSIFICATION_TYPE":"U","NORAD_CAT_ID":65481,"ELEMENT_SET_NO":999,"REV_AT_EPOCH":1101,"BSTAR":0.0016813708,"MEAN_MOTION_DOT":0.00067585,"MEAN_MOTION_DDOT":0},{"OBJECT_NAME":"STARLINK-35038","OBJECT_ID":"2025-195AA","EPOCH":"2025-11-05T17:36:48.204864","MEAN_MOTION":15.30228907,"ECCENTRICITY":0.00018576,"INCLINATION":53.1591,"RA_OF_ASC_NODE":114.0486,"ARG_OF_PERICENTER":87.3324,"MEAN_ANOMALY":272.7889,"EPHEMERIS_TYPE":0,"CLASSIFICATION_TYPE":"U","NORAD_CAT_ID":65482,"ELEMENT_SET_NO":999,"REV_AT_EPOCH":1099,"BSTAR":0.0012623637,"MEAN_MOTION_DOT":0.0003725,"MEAN_MOTION_DDOT":0},{"OBJECT_NAME":"STARLINK-35037","OBJECT_ID":"2025-195AB","EPOCH":"2025-11-05T20:17:33.406656","MEAN_MOTION":15.30255824,"ECCENTRICITY":0.0003955,"INCLINATION":53.1578,"RA_OF_ASC_NODE":113.3215,"ARG_OF_PERICENTER":54.453,"MEAN_ANOMALY":305.6839,"EPHEMERIS_TYPE":0,"CLASSIFICATION_TYPE":"U","NORAD_CAT_ID":65483,"ELEMENT_SET_NO":999,"REV_AT_EPOCH":1101,"BSTAR":0.0017055653,"MEAN_MOTION_DOT":0.00050595,"MEAN_MOTION_DDOT":0},{"OBJECT_NAME":"STARLINK-35089","OBJECT_ID":"2025-195AC","EPOCH":"2025-11-05T21:09:13.230432","MEAN_MOTION":15.30215932,"ECCENTRICITY":6.72e-5,"INCLINATION":53.1553,"RA_OF_ASC_NODE":113.5473,"ARG_OF_PERICENTER":75.2429,"MEAN_ANOMALY":284.8647,"EPHEMERIS_TYPE":0,"CLASSIFICATION_TYPE":"U","NORAD_CAT_ID":65484,"ELEMENT_SET_NO":999,"REV_AT_EPOCH":1101,"BSTAR":0.0017983299,"MEAN_MOTION_DOT":0.00053311,"MEAN_MOTION_DDOT":0},{"OBJECT_NAME":"STARLINK-35143","OBJECT_ID":"2025-195AD","EPOCH":"2025-11-05T21:19:41.517408","MEAN_MOTION":15.3023117,"ECCENTRICITY":9.303e-5,"INCLINATION":53.158,"RA_OF_ASC_NODE":112.8824,"ARG_OF_PERICENTER":26.1164,"MEAN_ANOMALY":333.9884,"EPHEMERIS_TYPE":0,"CLASSIFICATION_TYPE":"U","NORAD_CAT_ID":65485,"ELEMENT_SET_NO":999,"REV_AT_EPOCH":1102,"BSTAR":0.0013109285,"MEAN_MOTION_DOT":0.00038707,"MEAN_MOTION_DDOT":0},{"OBJECT_NAME":"STARLINK-35226","OBJECT_ID":"2025-198A","EPOCH":"2025-11-05T12:39:54.144000","MEAN_MOTION":15.38682899,"ECCENTRICITY":0.00044436,"INCLINATION":53.1541,"RA_OF_ASC_NODE":133.8706,"ARG_OF_PERICENTER":18.6968,"MEAN_ANOMALY":341.4199,"EPHEMERIS_TYPE":0,"CLASSIFICATION_TYPE":"U","NORAD_CAT_ID":65492,"ELEMENT_SET_NO":999,"REV_AT_EPOCH":952,"BSTAR":0.0018763324,"MEAN_MOTION_DOT":0.00073104,"MEAN_MOTION_DDOT":0},{"OBJECT_NAME":"STARLINK-35242","OBJECT_ID":"2025-198B","EPOCH":"2025-11-05T13:26:44.253888","MEAN_MOTION":15.39649791,"ECCENTRICITY":9.618e-5,"INCLINATION":53.1575,"RA_OF_ASC_NODE":134.0819,"ARG_OF_PERICENTER":82.3821,"MEAN_ANOMALY":277.7293,"EPHEMERIS_TYPE":0,"CLASSIFICATION_TYPE":"U","NORAD_CAT_ID":65493,"ELEMENT_SET_NO":999,"REV_AT_EPOCH":952,"BSTAR":0.0015013226,"MEAN_MOTION_DOT":0.00060187,"MEAN_MOTION_DDOT":0},{"OBJECT_NAME":"STARLINK-35223","OBJECT_ID":"2025-198C","EPOCH":"2025-11-05T21:40:14.716704","MEAN_MOTION":15.39658698,"ECCENTRICITY":3.719e-5,"INCLINATION":53.1634,"RA_OF_ASC_NODE":131.9479,"ARG_OF_PERICENTER":235.6244,"MEAN_ANOMALY":124.4726,"EPHEMERIS_TYPE":0,"CLASSIFICATION_TYPE":"U","NORAD_CAT_ID":65494,"ELEMENT_SET_NO":999,"REV_AT_EPOCH":958,"BSTAR":0.001394708,"MEAN_MOTION_DOT":0.00055869,"MEAN_MOTION_DDOT":0},{"OBJECT_NAME":"STARLINK-34446","OBJECT_ID":"2025-198D","EPOCH":"2025-11-05T22:27:03.715488","MEAN_MOTION":15.39641755,"ECCENTRICITY":0.00010332,"INCLINATION":53.1575,"RA_OF_ASC_NODE":132.1549,"ARG_OF_PERICENTER":92.8241,"MEAN_ANOMALY":267.2882,"EPHEMERIS_TYPE":0,"CLASSIFICATION_TYPE":"U","NORAD_CAT_ID":65495,"ELEMENT_SET_NO":999,"REV_AT_EPOCH":958,"BSTAR":0.00077767641,"MEAN_MOTION_DOT":0.00030855,"MEAN_MOTION_DDOT":0},{"OBJECT_NAME":"STARLINK-35212","OBJECT_ID":"2025-198E","EPOCH":"2025-11-05T12:06:29.893824","MEAN_MOTION":15.39649953,"ECCENTRICITY":0.00016693,"INCLINATION":53.1573,"RA_OF_ASC_NODE":133.7271,"ARG_OF_PERICENTER":89.0013,"MEAN_ANOMALY":271.1183,"EPHEMERIS_TYPE":0,"CLASSIFICATION_TYPE":"U","NORAD_CAT_ID":65496,"ELEMENT_SET_NO":999,"REV_AT_EPOCH":952,"BSTAR":0.0011776919,"MEAN_MOTION_DOT":0.00047045,"MEAN_MOTION_DDOT":0},{"OBJECT_NAME":"STARLINK-34455","OBJECT_ID":"2025-198F","EPOCH":"2025-11-05T22:14:09.839328","MEAN_MOTION":15.39641303,"ECCENTRICITY":0.00012124,"INCLINATION":53.1573,"RA_OF_ASC_NODE":132.0957,"ARG_OF_PERICENTER":67.0316,"MEAN_ANOMALY":293.0817,"EPHEMERIS_TYPE":0,"CLASSIFICATION_TYPE":"U","NORAD_CAT_ID":65497,"ELEMENT_SET_NO":999,"REV_AT_EPOCH":958,"BSTAR":0.0011564875,"MEAN_MOTION_DOT":0.00046172,"MEAN_MOTION_DDOT":0},{"OBJECT_NAME":"STARLINK-35203","OBJECT_ID":"2025-198G","EPOCH":"2025-11-05T22:33:44.883648","MEAN_MOTION":15.39663909,"ECCENTRICITY":8.661e-5,"INCLINATION":53.1555,"RA_OF_ASC_NODE":132.1845,"ARG_OF_PERICENTER":41.9391,"MEAN_ANOMALY":318.168,"EPHEMERIS_TYPE":0,"CLASSIFICATION_TYPE":"U","NORAD_CAT_ID":65498,"ELEMENT_SET_NO":999,"REV_AT_EPOCH":958,"BSTAR":0.0011122248,"MEAN_MOTION_DOT":0.00044412,"MEAN_MOTION_DDOT":0},{"OBJECT_NAME":"STARLINK-35166","OBJECT_ID":"2025-198H","EPOCH":"2025-11-05T21:46:56.305632","MEAN_MOTION":15.39665218,"ECCENTRICITY":3.082e-5,"INCLINATION":53.16,"RA_OF_ASC_NODE":131.9743,"ARG_OF_PERICENTER":129.2046,"MEAN_ANOMALY":230.8986,"EPHEMERIS_TYPE":0,"CLASSIFICATION_TYPE":"U","NORAD_CAT_ID":65499,"ELEMENT_SET_NO":999,"REV_AT_EPOCH":958,"BSTAR":0.0015536871,"MEAN_MOTION_DOT":0.00062349,"MEAN_MOTION_DDOT":0},{"OBJECT_NAME":"STARLINK-35207","OBJECT_ID":"2025-198J","EPOCH":"2025-11-05T21:53:37.347648","MEAN_MOTION":15.39664185,"ECCENTRICITY":7.468e-5,"INCLINATION":53.1632,"RA_OF_ASC_NODE":132.0059,"ARG_OF_PERICENTER":316.0362,"MEAN_ANOMALY":44.0584,"EPHEMERIS_TYPE":0,"CLASSIFICATION_TYPE":"U","NORAD_CAT_ID":65500,"ELEMENT_SET_NO":999,"REV_AT_EPOCH":958,"BSTAR":0.0011799656,"MEAN_MOTION_DOT":0.00047159,"MEAN_MOTION_DDOT":0},{"OBJECT_NAME":"STARLINK-35140","OBJECT_ID":"2025-198K","EPOCH":"2025-11-05T22:07:28.576128","MEAN_MOTION":15.39651698,"ECCENTRICITY":0.00011498,"INCLINATION":53.158,"RA_OF_ASC_NODE":132.0655,"ARG_OF_PERICENTER":80.3133,"MEAN_ANOMALY":279.8001,"EPHEMERIS_TYPE":0,"CLASSIFICATION_TYPE":"U","NORAD_CAT_ID":65501,"ELEMENT_SET_NO":999,"REV_AT_EPOCH":958,"BSTAR":0.0020373088,"MEAN_MOTION_DOT":0.00082058,"MEAN_MOTION_DDOT":0},{"OBJECT_NAME":"STARLINK-35114","OBJECT_ID":"2025-198L","EPOCH":"2025-11-05T22:40:26.089824","MEAN_MOTION":15.39640124,"ECCENTRICITY":0.00012941,"INCLINATION":53.1573,"RA_OF_ASC_NODE":132.2145,"ARG_OF_PERICENTER":72.7491,"MEAN_ANOMALY":287.3655,"EPHEMERIS_TYPE":0,"CLASSIFICATION_TYPE":"U","NORAD_CAT_ID":65502,"ELEMENT_SET_NO":999,"REV_AT_EPOCH":958,"BSTAR":0.0010485379,"MEAN_MOTION_DOT":0.00041799,"MEAN_MOTION_DDOT":0}]
